{"type":"FeatureCollection","features":[{"type":"Feature","properties":{"name":"1A - CTI"},"geometry":{"type":"Polygon","coordinates":[[[-79.9492938,-2.145742],[-79.9493038,-2.1457842],[-79.9492888,-2.1458402],[-79.949296,-2.1458789],[-79.9493049,-2.145917],[-79.9492911,-2.1459497],[-79.9492576,-2.1459752],[-79.9492173,-2.146002],[-79.9491717,-2.1460074],[-79.9490725,-2.1460054],[-79.9489705,-2.1460007],[-79.9489182,-2.1459659],[-79.9488974,-2.1459873],[-79.9489544,-2.1460463],[-79.9489021,-2.1460784],[-79.9488371,-2.1461065],[-79.948772,-2.1461106],[-79.9486687,-2.1460999],[-79.9485976,-2.1460678],[-79.9485373,-2.1459981],[-79.9485038,-2.145923],[-79.9484971,-2.1458607],[-79.9484984,-2.1458011],[-79.948528,-2.1457127],[-79.9485681,-2.145657],[-79.9486217,-2.1456108],[-79.9486787,-2.145584],[-79.9487358,-2.1455679],[-79.9488156,-2.1455692],[-79.9488927,-2.1455893],[-79.9489652,-2.1456389],[-79.9488985,-2.1456901],[-79.9489229,-2.1457092],[-79.9489719,-2.1456777],[-79.9490268,-2.1456764],[-79.9492093,-2.1456764],[-79.9492938,-2.145742]]]}},{"type":"Feature","properties":{"name":"1B"},"geometry":{"type":"Polygon","coordinates":[[[-79.9530651,-2.1473171],[-79.9526118,-2.1477995],[-79.9524911,-2.147837],[-79.9525287,-2.1478933],[-79.9524134,-2.1479094],[-79.9522739,-2.1479174],[-79.9520781,-2.1479228],[-79.951952,-2.1477995],[-79.9520647,-2.1476467],[-79.9521961,-2.1475208],[-79.9524348,-2.1473385],[-79.9525019,-2.1472179],[-79.9527969,-2.1470249],[-79.9530651,-2.1473171]]]}},{"type":"Feature","properties":{"name":"1C - BCBG"},"geometry":{"type":"Polygon","coordinates":[[[-79.9495862,-2.1346631],[-79.9494735,-2.1350651],[-79.9491248,-2.1349566],[-79.9492375,-2.1345532],[-79.9495862,-2.1346631]]]}},{"type":"Feature","properties":{"name":"1D - GOE"},"geometry":{"type":"Polygon","coordinates":[[[-79.9473479,-2.1446908],[-79.9472621,-2.1447578],[-79.9471736,-2.1446774],[-79.9472862,-2.144597],[-79.9473479,-2.1446908]]]}},{"type":"Feature","properties":{"name":"1E - VIBAG"},"geometry":{"type":"Polygon","coordinates":[[[-79.9489863,-2.1406586],[-79.9490333,-2.140739],[-79.9490923,-2.1408409],[-79.9490896,-2.1409253],[-79.9488697,-2.1409427],[-79.9489193,-2.1410741],[-79.9488375,-2.1411786],[-79.9486752,-2.1411907],[-79.9485545,-2.141263],[-79.9484204,-2.1411062],[-79.9483761,-2.1410446],[-79.9486189,-2.1408891],[-79.9484982,-2.1408865],[-79.9485022,-2.1407967],[-79.9487758,-2.1407953],[-79.9489863,-2.1406586]]]}},{"type":"Feature","properties":{"name":"1F - Bioconversión"},"geometry":{"type":"Polygon","coordinates":[[[-79.9465627,-2.1451971],[-79.94656,-2.1453017],[-79.9464581,-2.1453097],[-79.9464688,-2.1453901],[-79.9462784,-2.1453874],[-79.9462745,-2.1454152],[-79.9462289,-2.1454085],[-79.9461992,-2.1444464],[-79.9463172,-2.1444316],[-79.9463749,-2.144433],[-79.9463883,-2.1449744],[-79.9465036,-2.1449784],[-79.9465036,-2.1451942],[-79.9465627,-2.1451971]]]}},{"type":"Feature","properties":{"name":"1CM"},"geometry":{"type":"Polygon","coordinates":[[[-79.949411,-2.1463302],[-79.949175,-2.1463194],[-79.9490435,-2.1463302],[-79.9490194,-2.1463127],[-79.9490154,-2.1462886],[-79.9490248,-2.1462658],[-79.9490878,-2.1462511],[-79.9491669,-2.1462417],[-79.9492782,-2.146243],[-79.9493614,-2.1462591],[-79.949415,-2.1462779],[-79.9494231,-2.1463074],[-79.949411,-2.1463302]]]}},{"type":"Feature","properties":{"name":"1CA"},"geometry":{"type":"Polygon","coordinates":[[[-79.9471651,-2.1412199],[-79.9471611,-2.1413218],[-79.9470833,-2.1413178],[-79.94709,-2.1412159],[-79.9471651,-2.1412199]]]}},{"type":"Feature","properties":{"name":"1GT"},"geometry":{"type":"Polygon","coordinates":[[[-79.9469793,-2.1422155],[-79.946931,-2.1422262],[-79.9468492,-2.142249],[-79.9468304,-2.14219],[-79.9470276,-2.1421511],[-79.9470329,-2.1421953],[-79.9469793,-2.1422155]]]}},{"type":"Feature","properties":{"name":"2A - Admisiones"},"geometry":{"type":"Polygon","coordinates":[[[-79.9496142,-2.1503827],[-79.9493768,-2.1504417],[-79.94935,-2.1504752],[-79.9490656,-2.1502729],[-79.94913,-2.1502434],[-79.9491528,-2.1502086],[-79.9491126,-2.1501911],[-79.9490777,-2.1501724],[-79.9490616,-2.1501576],[-79.9490576,-2.1501281],[-79.9493258,-2.1497153],[-79.9494358,-2.1497824],[-79.9494466,-2.1497422],[-79.94959,-2.1497877],[-79.9494734,-2.1502058],[-79.9495606,-2.1502742],[-79.9495981,-2.1503265],[-79.9496142,-2.1503827]]]}},{"type":"Feature","properties":{"name":"2B"},"geometry":{"type":"Polygon","coordinates":[[[-79.9491555,-2.15037],[-79.9492012,-2.1505844],[-79.9489973,-2.1506219],[-79.9489491,-2.1504182],[-79.9491555,-2.15037]]]}},{"type":"Feature","properties":{"name":"2C - Educación Continua"},"geometry":{"type":"Polygon","coordinates":[[[-79.9497134,-2.1494902],[-79.9496624,-2.1496738],[-79.9495444,-2.1496383],[-79.9494211,-2.1496189],[-79.9493164,-2.1495827],[-79.9493433,-2.1495049],[-79.9494144,-2.149525],[-79.9494714,-2.149332],[-79.9494962,-2.1493455],[-79.9496235,-2.149387],[-79.9495767,-2.1493267],[-79.9496692,-2.1491813],[-79.9496813,-2.1491431],[-79.949751,-2.1491766],[-79.9497966,-2.1492356],[-79.9498241,-2.1492765],[-79.9498462,-2.1493415],[-79.9496544,-2.149399],[-79.9497295,-2.1494218],[-79.9497134,-2.1494902]]]}},{"type":"Feature","properties":{"name":"2D - CEPE"},"geometry":{"type":"Polygon","coordinates":[[[-79.9533852,-2.1513367],[-79.9532444,-2.151602],[-79.9530271,-2.1514894],[-79.953172,-2.1512187],[-79.9533852,-2.1513367]]]}},{"type":"Feature","properties":{"name":"SE1"},"geometry":{"type":"Polygon","coordinates":[[[-79.9504953,-2.1495746],[-79.9502137,-2.1498145],[-79.9501077,-2.1496925],[-79.9503853,-2.1494553],[-79.9504953,-2.1495746]]]}},{"type":"Feature","properties":{"name":"UPC"},"geometry":{"type":"Polygon","coordinates":[[[-79.9524826,-2.1517467],[-79.9524477,-2.1518365],[-79.9523244,-2.1517855],[-79.9523659,-2.1516985],[-79.9524826,-2.1517467]]]}},{"type":"Feature","properties":{"name":"3A - FCV & CIDIS"},"geometry":{"type":"Polygon","coordinates":[[[-79.9568754,-2.1516956],[-79.9568723,-2.1518399],[-79.9570454,-2.1518396],[-79.9570504,-2.1520456],[-79.9568024,-2.1520516],[-79.9568004,-2.1520366],[-79.9566964,-2.1520396],[-79.9566944,-2.1520636],[-79.9564984,-2.1520676],[-79.9565024,-2.1519536],[-79.9565374,-2.1519536],[-79.9565344,-2.1518968],[-79.9564944,-2.1518945],[-79.9564971,-2.1517298],[-79.956635,-2.1517278],[-79.9566744,-2.1517282],[-79.9566744,-2.1518006],[-79.9566968,-2.1517966],[-79.9566992,-2.1516892],[-79.9568754,-2.1516956]]]}},{"type":"Feature","properties":{"name":"3B"},"geometry":{"type":"Polygon","coordinates":[[[-79.9573494,-2.1513778],[-79.9573584,-2.1516188],[-79.9570384,-2.1516088],[-79.9570364,-2.1515248],[-79.9569714,-2.1515308],[-79.9569634,-2.1513268],[-79.9572134,-2.1513218],[-79.9572104,-2.1513828],[-79.9573494,-2.1513778]]]}},{"type":"Feature","properties":{"name":"3C - SEBIOCA"},"geometry":{"type":"Polygon","coordinates":[[[-79.9577444,-2.1508029],[-79.9577504,-2.1509719],[-79.9574574,-2.1509639],[-79.9574524,-2.1508059],[-79.9577444,-2.1508029]]]}},{"type":"Feature","properties":{"name":"3D"},"geometry":{"type":"Polygon","coordinates":[[[-79.9579228,-2.1505286],[-79.9579308,-2.1506946],[-79.9576388,-2.1507106],[-79.9576148,-2.1507086],[-79.9576228,-2.1505256],[-79.9579228,-2.1505286]]]}},{"type":"Feature","properties":{"name":"3E"},"geometry":{"type":"Polygon","coordinates":[[[-79.9575726,-2.1503172],[-79.957575,-2.150509],[-79.957262,-2.150509],[-79.9572707,-2.1503183],[-79.9575726,-2.1503172]]]}},{"type":"Feature","properties":{"name":"3F"},"geometry":{"type":"Polygon","coordinates":[[[-79.956814,-2.1509993],[-79.956817,-2.1511143],[-79.956535,-2.1511253],[-79.956533,-2.1510103],[-79.956814,-2.1509993]]]}},{"type":"Feature","properties":{"name":"3G - BabyESPOL"},"geometry":{"type":"Polygon","coordinates":[[[-79.9558833,-2.1512164],[-79.9558813,-2.1514814],[-79.9555313,-2.1514814],[-79.9555393,-2.1512154],[-79.9558833,-2.1512164]]]}},{"type":"Feature","properties":{"name":"3H"},"geometry":{"type":"Polygon","coordinates":[[[-79.9561232,-2.1521362],[-79.9561282,-2.1523952],[-79.9555817,-2.1523868],[-79.9555857,-2.1521402],[-79.9561232,-2.1521362]]]}},{"type":"Feature","properties":{"name":"3I"},"geometry":{"type":"Polygon","coordinates":[[[-79.954829,-2.151135],[-79.955316,-2.151134],[-79.955318,-2.151302],[-79.954826,-2.151306],[-79.954828,-2.151229],[-79.954829,-2.151135]]]}},{"type":"Feature","properties":{"name":"3J - CONDUESPOL"},"geometry":{"type":"Polygon","coordinates":[[[-79.955425,-2.150782],[-79.955437,-2.150947],[-79.95474,-2.150947],[-79.954739,-2.150849],[-79.954752,-2.15085],[-79.955318,-2.150859],[-79.955329,-2.150785],[-79.955425,-2.150782]]]}},{"type":"Feature","properties":{"name":"3K - CIBE"},"geometry":{"type":"Polygon","coordinates":[[[-79.953885,-2.151139],[-79.95461,-2.151141],[-79.954608,-2.151305],[-79.953877,-2.151318],[-79.953885,-2.151139]]]}},{"type":"Feature","properties":{"name":"3L"},"geometry":{"type":"Polygon","coordinates":[[[-79.9546029,-2.1514162],[-79.9545949,-2.151589],[-79.9539491,-2.1515882],[-79.9539538,-2.1514095],[-79.9546029,-2.1514162]]]}},{"type":"Feature","properties":{"name":"3M"},"geometry":{"type":"Polygon","coordinates":[[[-79.9543876,-2.1518296],[-79.9543936,-2.1520196],[-79.9537256,-2.1520386],[-79.9537196,-2.1518316],[-79.9543876,-2.1518296]]]}},{"type":"Feature","properties":{"name":"3N"},"geometry":{"type":"Polygon","coordinates":[[[-79.9534632,-2.1517173],[-79.9535402,-2.1518733],[-79.9533662,-2.1519643],[-79.9532882,-2.1518223],[-79.9534632,-2.1517173]]]}},{"type":"Feature","properties":{"name":"3O"},"geometry":{"type":"Polygon","coordinates":[[[-79.9537522,-2.150934],[-79.9537522,-2.15098],[-79.9536882,-2.150982],[-79.9536802,-2.151122],[-79.9535832,-2.15113],[-79.9535862,-2.150797],[-79.9536902,-2.150795],[-79.9536932,-2.150931],[-79.9537522,-2.150934]]]}},{"type":"Feature","properties":{"name":"3P"},"geometry":{"type":"Polygon","coordinates":[[[-79.954337,-2.150994],[-79.954341,-2.151086],[-79.954144,-2.151082],[-79.954146,-2.151041],[-79.954149,-2.15099],[-79.954337,-2.150994]]]}},{"type":"Feature","properties":{"name":"3Q"},"geometry":{"type":"Polygon","coordinates":[[[-79.954346,-2.150996],[-79.954405,-2.150993],[-79.954407,-2.151082],[-79.95435,-2.151084],[-79.954346,-2.150996]]]}},{"type":"Feature","properties":{"name":"3R"},"geometry":{"type":"Polygon","coordinates":[[[-79.954822,-2.151135],[-79.954821,-2.151303],[-79.954681,-2.1513],[-79.954684,-2.151142],[-79.954822,-2.151135]]]}},{"type":"Feature","properties":{"name":"3S"},"geometry":{"type":"Polygon","coordinates":[[[-79.9562663,-2.150413],[-79.9562603,-2.150565],[-79.9561963,-2.150563],[-79.9562043,-2.15041],[-79.9562663,-2.150413]]]}},{"type":"Feature","properties":{"name":"3T"},"geometry":{"type":"Polygon","coordinates":[[[-79.9579496,-2.1504247],[-79.9579456,-2.1505237],[-79.9576816,-2.1505217],[-79.9576866,-2.1504247],[-79.9579496,-2.1504247]]]}},{"type":"Feature","properties":{"name":"3U"},"geometry":{"type":"Polygon","coordinates":[[[-79.9568747,-2.1514686],[-79.9568777,-2.1515416],[-79.9567407,-2.1515476],[-79.9567367,-2.1514606],[-79.9568767,-2.1514586],[-79.9568747,-2.1514686]]]}},{"type":"Feature","properties":{"name":"3V - COPOL (Secundaria)"},"geometry":{"type":"Polygon","coordinates":[[[-79.9554688,-2.1515782],[-79.9555174,-2.1526416],[-79.9552807,-2.1527518],[-79.9552106,-2.1527946],[-79.9550265,-2.1526524],[-79.9548321,-2.1524808],[-79.9544646,-2.1520198],[-79.9544592,-2.1516043],[-79.9554688,-2.1515782]]]}},{"type":"Feature","properties":{"name":"3W - COPOL (Primaria)"},"geometry":{"type":"Polygon","coordinates":[[[-79.954458,-2.149883],[-79.954627,-2.149894],[-79.95464,-2.149958],[-79.954852,-2.149947],[-79.95489,-2.149977],[-79.955389,-2.14999],[-79.955389,-2.150644],[-79.954796,-2.150671],[-79.954251,-2.150684],[-79.954227,-2.150784],[-79.954058,-2.150821],[-79.954023,-2.15062],[-79.954187,-2.150475],[-79.954324,-2.150306],[-79.954334,-2.150046],[-79.954375,-2.150033],[-79.954377,-2.150055],[-79.9544386,-2.1500523],[-79.954431,-2.14987],[-79.954458,-2.149883]]]}},{"type":"Feature","properties":{"name":"3GT - GARITA"},"geometry":{"type":"Polygon","coordinates":[[[-79.953354,-2.152395],[-79.953341,-2.15243],[-79.953288,-2.152406],[-79.953306,-2.152372],[-79.953354,-2.152395]]]}},{"type":"Feature","properties":{"name":"4A - Residencia"},"geometry":{"type":"Polygon","coordinates":[[[-79.957147,-2.1536548],[-79.957096,-2.1537647],[-79.9571389,-2.1537754],[-79.9571121,-2.1538224],[-79.9567178,-2.1536575],[-79.9567419,-2.1536039],[-79.9567688,-2.1536106],[-79.9568157,-2.1535021],[-79.9568747,-2.1535302],[-79.9568264,-2.1536388],[-79.957037,-2.1537218],[-79.9570826,-2.1536186],[-79.957147,-2.1536548]]]}},{"type":"Feature","properties":{"name":"4B"},"geometry":{"type":"Polygon","coordinates":[[[-79.9602281,-2.1522475],[-79.9601851,-2.1522944],[-79.960161,-2.1522676],[-79.9601235,-2.1522703],[-79.9601047,-2.1520853],[-79.9601503,-2.1520746],[-79.9601811,-2.1520344],[-79.9601811,-2.1519888],[-79.9603662,-2.1519808],[-79.9603689,-2.1520331],[-79.9604037,-2.1520532],[-79.9603622,-2.1521068],[-79.96033,-2.1520853],[-79.9602281,-2.152088],[-79.9602053,-2.1521229],[-79.9602053,-2.1522274],[-79.9602281,-2.1522475]]]}},{"type":"Feature","properties":{"name":"4C"},"geometry":{"type":"Polygon","coordinates":[[[-79.9606169,-2.1520061],[-79.9605511,-2.1520115],[-79.9605525,-2.1520423],[-79.9604278,-2.1520531],[-79.9604184,-2.1519351],[-79.9605136,-2.1519324],[-79.9605096,-2.1518788],[-79.9606155,-2.1518762],[-79.9606169,-2.1520061]]]}},{"type":"Feature","properties":{"name":"4D"},"geometry":{"type":"Polygon","coordinates":[[[-79.9595432,-2.1530835],[-79.9595445,-2.1533542],[-79.9592401,-2.1533569],[-79.9592294,-2.1530876],[-79.9593554,-2.1530835],[-79.9593554,-2.1530286],[-79.9595365,-2.1530192],[-79.9595432,-2.1530835]]]}},{"type":"Feature","properties":{"name":"4E"},"geometry":{"type":"Polygon","coordinates":[[[-79.9590751,-2.1532068],[-79.9590751,-2.1535191],[-79.9589008,-2.1535231],[-79.9588995,-2.1532524],[-79.958984,-2.1532484],[-79.958984,-2.1532055],[-79.9590751,-2.1532068]]]}},{"type":"Feature","properties":{"name":"4F"},"geometry":{"type":"Polygon","coordinates":[[[-79.9595997,-2.1541113],[-79.9596064,-2.154248],[-79.9595327,-2.1542534],[-79.9595313,-2.1543351],[-79.9594254,-2.1543364],[-79.9594133,-2.1542199],[-79.9594603,-2.1542158],[-79.9594509,-2.1541274],[-79.9595997,-2.1541113]]]}},{"type":"Feature","properties":{"name":"4G"},"geometry":{"type":"Polygon","coordinates":[[[-79.9582561,-2.1529107],[-79.9583741,-2.1532645],[-79.9582601,-2.1533061],[-79.9581488,-2.1529469],[-79.9582561,-2.1529107]]]}},{"type":"Feature","properties":{"name":"4H"},"geometry":{"type":"Polygon","coordinates":[[[-79.9586782,-2.152648],[-79.9586822,-2.1527673],[-79.9584918,-2.1527687],[-79.9584864,-2.1526547],[-79.9586782,-2.152648]]]}},{"type":"Feature","properties":{"name":"4I"},"geometry":{"type":"Polygon","coordinates":[[[-79.9584663,-2.152648],[-79.9584677,-2.1527204],[-79.9583939,-2.1527218],[-79.9583953,-2.1526413],[-79.9584663,-2.152648]]]}},{"type":"Feature","properties":{"name":"4J"},"geometry":{"type":"Polygon","coordinates":[[[-79.9583044,-2.1523177],[-79.9583085,-2.152433],[-79.9581516,-2.152437],[-79.9581569,-2.1523244],[-79.9583044,-2.1523177]]]}},{"type":"Feature","properties":{"name":"4K"},"geometry":{"type":"Polygon","coordinates":[[[-79.9583621,-2.152169],[-79.9582857,-2.152244],[-79.9582401,-2.1522145],[-79.9583031,-2.1521422],[-79.9583353,-2.1521381],[-79.9583621,-2.152169]]]}},{"type":"Feature","properties":{"name":"4L"},"geometry":{"type":"Polygon","coordinates":[[[-79.9607805,-2.151781],[-79.9607818,-2.1519123],[-79.9606651,-2.151919],[-79.9606625,-2.1517904],[-79.9607805,-2.151781]]]}},{"type":"Feature","properties":{"name":"4M"},"geometry":{"type":"Polygon","coordinates":[[[-79.9609555,-2.1518681],[-79.9609622,-2.1519619],[-79.9608495,-2.1519847],[-79.9608415,-2.1518695],[-79.9609555,-2.1518681]]]}},{"type":"Feature","properties":{"name":"4N"},"geometry":{"type":"Polygon","coordinates":[[[-79.9610453,-2.151982],[-79.961052,-2.1520638],[-79.960871,-2.1520732],[-79.960871,-2.1519981],[-79.9610453,-2.151982]]]}},{"type":"Feature","properties":{"name":"4O"},"geometry":{"type":"Polygon","coordinates":[[[-79.9610346,-2.1521871],[-79.9608991,-2.1522005],[-79.9608857,-2.1520946],[-79.9610292,-2.1520745],[-79.9610346,-2.1521871]]]}},{"type":"Feature","properties":{"name":"4P"},"geometry":{"type":"Polygon","coordinates":[[[-79.96138,-2.152337],[-79.9613975,-2.1524737],[-79.9614914,-2.1524536],[-79.9615128,-2.1525367],[-79.9613157,-2.152593],[-79.961262,-2.1523598],[-79.96138,-2.152337]]]}},{"type":"Feature","properties":{"name":"4Q"},"geometry":{"type":"Polygon","coordinates":[[[-79.9610273,-2.1526185],[-79.960963,-2.1526895],[-79.9609133,-2.1526479],[-79.9609737,-2.1525742],[-79.9610273,-2.1526185]]]}},{"type":"Feature","properties":{"name":"4R"},"geometry":{"type":"Polygon","coordinates":[[[-79.9609361,-2.1525327],[-79.9609133,-2.1525474],[-79.9608718,-2.1525287],[-79.9609093,-2.1524978],[-79.9609361,-2.1525327]]]}},{"type":"Feature","properties":{"name":"4S"},"geometry":{"type":"Polygon","coordinates":[[[-79.9608637,-2.1524911],[-79.9607926,-2.1525313],[-79.9607216,-2.1523987],[-79.960794,-2.1523625],[-79.9608637,-2.1524911]]]}},{"type":"Feature","properties":{"name":"4T"},"geometry":{"type":"Polygon","coordinates":[[[-79.9606867,-2.1525139],[-79.9606451,-2.1524308],[-79.9607216,-2.1523987],[-79.9607524,-2.152471],[-79.9606867,-2.1525139]]]}},{"type":"Feature","properties":{"name":"4CM"},"geometry":{"type":"Polygon","coordinates":[[[-79.958692,-2.152073],[-79.9586303,-2.1521347],[-79.9585914,-2.1521038],[-79.9586612,-2.1520382],[-79.958692,-2.152073]]]}},{"type":"Feature","properties":{"name":"4CG"},"geometry":{"type":"Polygon","coordinates":[[[-79.959707,-2.1539639],[-79.9597084,-2.1540711],[-79.9595863,-2.1540738],[-79.9595877,-2.1539585],[-79.959707,-2.1539639]]]}},{"type":"Feature","properties":{"name":"5A - FIMCM"},"geometry":{"type":"Polygon","coordinates":[[[-79.9630211,-2.1469034],[-79.9628149,-2.1469485],[-79.9628856,-2.1469731],[-79.9626912,-2.1470401],[-79.9626469,-2.1469034],[-79.9627394,-2.146882],[-79.9627099,-2.1467935],[-79.9629124,-2.1467412],[-79.9629419,-2.146827],[-79.9629916,-2.1468096],[-79.9630211,-2.1469034]]]}},{"type":"Feature","properties":{"name":"5B"},"geometry":{"type":"Polygon","coordinates":[[[-79.9629326,-2.1467024],[-79.9628548,-2.1467292],[-79.9628253,-2.1466743],[-79.96271,-2.1467145],[-79.9626711,-2.1466207],[-79.9628776,-2.1465563],[-79.9629326,-2.1467024]]]}},{"type":"Feature","properties":{"name":"5C"},"geometry":{"type":"Polygon","coordinates":[[[-79.9622714,-2.1469879],[-79.962081,-2.1470549],[-79.9620448,-2.1469517],[-79.9622379,-2.146894],[-79.9622714,-2.1469879]]]}},{"type":"Feature","properties":{"name":"5D"},"geometry":{"type":"Polygon","coordinates":[[[-79.9622339,-2.1468833],[-79.9621494,-2.1469101],[-79.9621199,-2.1467815],[-79.9621963,-2.1467627],[-79.9622339,-2.1468833]]]}},{"type":"Feature","properties":{"name":"5E"},"geometry":{"type":"Polygon","coordinates":[[[-79.9622314,-2.1464507],[-79.9622636,-2.1465378],[-79.9622287,-2.1465525],[-79.9622582,-2.1466316],[-79.9621911,-2.146657],[-79.9621268,-2.1464734],[-79.9622314,-2.1464507]]]}},{"type":"Feature","properties":{"name":"5F"},"geometry":{"type":"Polygon","coordinates":[[[-79.9626842,-2.1462419],[-79.9623918,-2.1463317],[-79.9623569,-2.1462339],[-79.9626587,-2.1461454],[-79.9626842,-2.1462419]]]}},{"type":"Feature","properties":{"name":"5G"},"geometry":{"type":"Polygon","coordinates":[[[-79.9627097,-2.146278],[-79.962758,-2.146404],[-79.962715,-2.1464188],[-79.9627083,-2.1464013],[-79.9626681,-2.1464147],[-79.9626627,-2.146396],[-79.9624696,-2.146463],[-79.9624321,-2.1463705],[-79.9625428,-2.1463242],[-79.9625275,-2.1462805],[-79.9625719,-2.1462629],[-79.9625883,-2.1463202],[-79.9627097,-2.146278]]]}},{"type":"Feature","properties":{"name":"5H"},"geometry":{"type":"Polygon","coordinates":[[[-79.9629126,-2.1465003],[-79.9627812,-2.1465378],[-79.9627423,-2.1464198],[-79.9627771,-2.1464091],[-79.9627557,-2.1463541],[-79.9630039,-2.1462926],[-79.9630347,-2.1463689],[-79.9629019,-2.1464078],[-79.9629126,-2.1465003]]]}},{"type":"Feature","properties":{"name":"5I"},"geometry":{"type":"Polygon","coordinates":[[[-79.9630039,-2.1464788],[-79.963036,-2.1465672],[-79.9629489,-2.1465994],[-79.9629127,-2.1465069],[-79.9630039,-2.1464788]]]}},{"type":"Feature","properties":{"name":"5J"},"geometry":{"type":"Polygon","coordinates":[[[-79.9632976,-2.1464614],[-79.9632748,-2.1465284],[-79.9630562,-2.1464761],[-79.9630776,-2.146393],[-79.9632976,-2.1464614]]]}},{"type":"Feature","properties":{"name":"5K"},"geometry":{"type":"Polygon","coordinates":[[[-79.9634207,-2.1467627],[-79.9631606,-2.1468311],[-79.9630975,-2.1466542],[-79.9633631,-2.1465764],[-79.9634207,-2.1467627]]]}},{"type":"Feature","properties":{"name":"5L - ESPOLTEL"},"geometry":{"type":"Polygon","coordinates":[[[-79.9584731,-2.1474699],[-79.9585241,-2.1476147],[-79.9584155,-2.1476508],[-79.9583685,-2.1475007],[-79.9584731,-2.1474699]]]}},{"type":"Feature","properties":{"name":"5M - Capilla"},"geometry":{"type":"Polygon","coordinates":[[[-79.9594829,-2.1466409],[-79.9595017,-2.1466704],[-79.9594936,-2.1467213],[-79.9594454,-2.1467401],[-79.9594051,-2.1467253],[-79.9593837,-2.1466838],[-79.9593998,-2.1466463],[-79.9594427,-2.1466248],[-79.9594829,-2.1466409]]]}},{"type":"Feature","properties":{"name":"5N"},"geometry":{"type":"Polygon","coordinates":[[[-79.9637915,-2.1464182],[-79.9636064,-2.1464825],[-79.9635474,-2.1463404],[-79.9637459,-2.1462868],[-79.9637915,-2.1464182]]]}},{"type":"Feature","properties":{"name":"5O"},"geometry":{"type":"Polygon","coordinates":[[[-79.9625447,-2.1460905],[-79.9625675,-2.1461575],[-79.9623892,-2.1462138],[-79.9623664,-2.1461441],[-79.9625447,-2.1460905]]]}},{"type":"Feature","properties":{"name":"5P"},"geometry":{"type":"Polygon","coordinates":[[[-79.962644,-2.1461287],[-79.9625823,-2.1461488],[-79.9625622,-2.1460844],[-79.9626212,-2.1460657],[-79.962644,-2.1461287]]]}},{"type":"Feature","properties":{"name":""},"geometry":{"type":"Polygon","coordinates":[[[-79.9622707,-2.1463726],[-79.9621983,-2.1464021],[-79.9621554,-2.146335],[-79.9622251,-2.1463029],[-79.9622505,-2.1463338],[-79.9622707,-2.1463726]]]}},{"type":"Feature","properties":{"name":"6A - RECTORADO"},"geometry":{"type":"Polygon","coordinates":[[[-79.9650047,-2.1476777],[-79.9647338,-2.1475625],[-79.9644656,-2.147659],[-79.9643717,-2.1478466],[-79.9640901,-2.1479484],[-79.9640043,-2.1477018],[-79.9640713,-2.1476696],[-79.9640552,-2.1476013],[-79.9642376,-2.147541],[-79.9642718,-2.1476046],[-79.9643221,-2.1476013],[-79.9643329,-2.1475437],[-79.9643682,-2.147478],[-79.9643471,-2.1474633],[-79.9643715,-2.1474191],[-79.9643965,-2.1474123],[-79.9644173,-2.1473668],[-79.9643892,-2.1472542],[-79.964538,-2.1471979],[-79.9645796,-2.1472314],[-79.9646212,-2.147348],[-79.964641,-2.1473634],[-79.9646662,-2.1473333],[-79.9648036,-2.1472837],[-79.9648357,-2.1473775],[-79.9649282,-2.147348],[-79.9649631,-2.1474471],[-79.9649457,-2.1474766],[-79.9650047,-2.1476777]]]}},{"type":"Feature","properties":{"name":"6B"},"geometry":{"type":"Polygon","coordinates":[[[-79.9639567,-2.1478399],[-79.9639688,-2.1478787],[-79.9639192,-2.1478988],[-79.9637073,-2.1479095],[-79.9636912,-2.1478827],[-79.9636939,-2.147795],[-79.9637449,-2.1477742],[-79.9636912,-2.147738],[-79.9636845,-2.147596],[-79.9637181,-2.1475826],[-79.9637046,-2.1475343],[-79.9637757,-2.1475048],[-79.9638011,-2.1475667],[-79.9638252,-2.1475723],[-79.9638277,-2.1476452],[-79.9638515,-2.1476328],[-79.9638669,-2.1476911],[-79.9638978,-2.1476791],[-79.9639567,-2.1478399]]]}},{"type":"Feature","properties":{"name":"6C"},"geometry":{"type":"Polygon","coordinates":[[[-79.9637502,-2.1475075],[-79.9636548,-2.1475466],[-79.9636494,-2.147505],[-79.9636521,-2.1474769],[-79.9637192,-2.1474474],[-79.9637502,-2.1475075]]]}},{"type":"Feature","properties":{"name":"6D"},"geometry":{"type":"Polygon","coordinates":[[[-79.9637849,-2.14745],[-79.9637554,-2.1474621],[-79.9637286,-2.1474406],[-79.9637273,-2.1474071],[-79.9637594,-2.1473937],[-79.9637849,-2.1474138],[-79.9637849,-2.14745]]]}},{"type":"Feature","properties":{"name":"6E"},"geometry":{"type":"Polygon","coordinates":[[[-79.9641504,-2.1487726],[-79.9640043,-2.1488799],[-79.9638889,-2.1487204],[-79.9640418,-2.1485904],[-79.9640914,-2.1486842],[-79.9641504,-2.1487726]]]}},{"type":"Feature","properties":{"name":"7A - BIBLIOTECA"},"geometry":{"type":"Polygon","coordinates":[[[-79.9663758,-2.1469586],[-79.9663758,-2.1470671],[-79.9662726,-2.147055],[-79.9662296,-2.1472373],[-79.9662645,-2.1472641],[-79.9663101,-2.1472132],[-79.9663208,-2.1472909],[-79.9663825,-2.1473485],[-79.9663905,-2.1477358],[-79.9659346,-2.1477332],[-79.9659238,-2.1476434],[-79.9658628,-2.147646],[-79.9658689,-2.1475656],[-79.9659252,-2.1475603],[-79.9659238,-2.1474986],[-79.9659828,-2.1474464],[-79.9659856,-2.1472253],[-79.9660365,-2.1472728],[-79.9660606,-2.1472493],[-79.965999,-2.1470403],[-79.9659936,-2.1469545],[-79.9662564,-2.1469304],[-79.9663054,-2.1469498],[-79.9663758,-2.1469586]]]}},{"type":"Feature","properties":{"name":"7B"},"geometry":{"type":"Polygon","coordinates":[[[-79.9662457,-2.1469182],[-79.9660527,-2.1469356],[-79.9660613,-2.1468499],[-79.9660781,-2.1467467],[-79.9662216,-2.1467441],[-79.9662457,-2.1469182]]]}},{"type":"Feature","properties":{"name":"7C - APESPOL"},"geometry":{"type":"Polygon","coordinates":[[[-79.9655534,-2.1470831],[-79.9655816,-2.1471904],[-79.9655092,-2.1472185],[-79.9654019,-2.1472426],[-79.9653671,-2.1471354],[-79.9654247,-2.1471206],[-79.9654207,-2.1470858],[-79.9653818,-2.1470496],[-79.9654073,-2.1470416],[-79.9654059,-2.1470081],[-79.9654341,-2.1470007],[-79.9654542,-2.1469531],[-79.9654636,-2.1469437],[-79.9655588,-2.1469933],[-79.9655267,-2.1470563],[-79.9655534,-2.1470831]]]}},{"type":"Feature","properties":{"name":"8A - FCSH"},"geometry":{"type":"Polygon","coordinates":[[[-79.9687531,-2.1476811],[-79.9686297,-2.1476181],[-79.9686901,-2.1474867],[-79.9688148,-2.1475564],[-79.9688497,-2.1474907],[-79.968961,-2.1475417],[-79.9689784,-2.1475846],[-79.9689275,-2.147669],[-79.9689597,-2.1476811],[-79.968855,-2.1478633],[-79.9688859,-2.1478821],[-79.9688081,-2.1480308],[-79.9687491,-2.1480027],[-79.9686874,-2.1479531],[-79.9686673,-2.1479276],[-79.9686821,-2.1478446],[-79.9686606,-2.1478311],[-79.9686538,-2.1478137],[-79.9686485,-2.1477842],[-79.9686579,-2.1477561],[-79.9686968,-2.147736],[-79.968725,-2.14774],[-79.9687531,-2.1476811]]]}},{"type":"Feature","properties":{"name":"8B"},"geometry":{"type":"Polygon","coordinates":[[[-79.9687518,-2.1480375],[-79.9688269,-2.1482533],[-79.9684863,-2.1483699],[-79.9684152,-2.1481354],[-79.9687518,-2.1480375]]]}},{"type":"Feature","properties":{"name":"8C"},"geometry":{"type":"Polygon","coordinates":[[[-79.9681139,-2.1482747],[-79.968181,-2.1484449],[-79.9682226,-2.1484288],[-79.9682333,-2.1484583],[-79.9682696,-2.1484476],[-79.9682924,-2.1485106],[-79.9682521,-2.1485293],[-79.9681857,-2.1485635],[-79.9682011,-2.1486097],[-79.9680898,-2.1486459],[-79.9679691,-2.1483243],[-79.9681139,-2.1482747]]]}},{"type":"Feature","properties":{"name":"8D"},"geometry":{"type":"Polygon","coordinates":[[[-79.9679745,-2.1485842],[-79.9679517,-2.1485909],[-79.9679047,-2.1485454],[-79.967835,-2.1486432],[-79.967772,-2.148611],[-79.967835,-2.1485052],[-79.9679047,-2.1484582],[-79.9679262,-2.1484515],[-79.9679745,-2.1485842]]]}},{"type":"Feature","properties":{"name":"8E"},"geometry":{"type":"Polygon","coordinates":[[[-79.9677613,-2.1486138],[-79.9678565,-2.1486567],[-79.9679034,-2.1485762],[-79.9680147,-2.1486366],[-79.9679033,-2.1488308],[-79.9676941,-2.1487183],[-79.9677613,-2.1486138]]]}},{"type":"Feature","properties":{"name":"8F"},"geometry":{"type":"Polygon","coordinates":[[[-79.967685,-2.1487718],[-79.9673673,-2.1488577],[-79.9673603,-2.1488191],[-79.9673773,-2.148786],[-79.9673767,-2.1487304],[-79.9676502,-2.1486674],[-79.967685,-2.1487718]]]}},{"type":"Feature","properties":{"name":"8G"},"geometry":{"type":"Polygon","coordinates":[[[-79.9672989,-2.1483592],[-79.9673739,-2.1486647],[-79.9672532,-2.1487022],[-79.9671728,-2.1483967],[-79.9672989,-2.1483592]]]}},{"type":"Feature","properties":{"name":"8H"},"geometry":{"type":"Polygon","coordinates":[[[-79.9673887,-2.1482545],[-79.9675496,-2.1485252],[-79.9674557,-2.1485869],[-79.9674424,-2.1485587],[-79.9674061,-2.1485809],[-79.967321,-2.1483534],[-79.9673002,-2.1483188],[-79.9673887,-2.1482545]]]}},{"type":"Feature","properties":{"name":"8I"},"geometry":{"type":"Polygon","coordinates":[[[-79.9677746,-2.1485655],[-79.9677545,-2.1486004],[-79.9676968,-2.1486996],[-79.9676673,-2.1486842],[-79.967662,-2.148655],[-79.9674581,-2.1487036],[-79.9674313,-2.1486178],[-79.9674997,-2.1486192],[-79.9675024,-2.1485931],[-79.9675526,-2.148576],[-79.9676029,-2.1485508],[-79.9676566,-2.1485401],[-79.9676995,-2.1485414],[-79.9677746,-2.1485655]]]}},{"type":"Feature","properties":{"name":"8J - VINCULACION"},"geometry":{"type":"Polygon","coordinates":[[[-79.9649412,-2.1487097],[-79.9649814,-2.148695],[-79.9650351,-2.1487178],[-79.9649586,-2.1488705],[-79.964909,-2.1487499],[-79.9648822,-2.148711],[-79.9649251,-2.1486829],[-79.9649412,-2.1487097]]]}},{"type":"Feature","properties":{"name":"8K"},"geometry":{"type":"Polygon","coordinates":[[[-79.9695311,-2.1453648],[-79.969397,-2.1454586],[-79.9693434,-2.1453836],[-79.9693045,-2.1454037],[-79.9692227,-2.1452857],[-79.969401,-2.1451624],[-79.9695311,-2.1453648]]]}},{"type":"Feature","properties":{"name":"8L - BCBG"},"geometry":{"type":"Polygon","coordinates":[[[-79.9764806,-2.1444777],[-79.9761211,-2.1446224],[-79.9745923,-2.1439309],[-79.9744957,-2.1440703],[-79.9743348,-2.1440971],[-79.9742168,-2.144006],[-79.9741524,-2.1438291],[-79.9738895,-2.1437004],[-79.9743455,-2.1420225],[-79.9763411,-2.1426872],[-79.9763786,-2.1430035],[-79.9764376,-2.1432555],[-79.9765771,-2.1435825],[-79.976561,-2.1437701],[-79.9764323,-2.1440167],[-79.976384,-2.1441025],[-79.9763947,-2.144274],[-79.9764806,-2.1444777]]]}},{"type":"Feature","properties":{"name":"9A - FCNM"},"geometry":{"type":"Polygon","coordinates":[[[-79.9671963,-2.146776],[-79.9672554,-2.1469502],[-79.9670488,-2.1470092],[-79.9669845,-2.1468457],[-79.9671963,-2.146776]]]}},{"type":"Feature","properties":{"name":"9B"},"geometry":{"type":"Polygon","coordinates":[[[-79.9673704,-2.1469837],[-79.9674428,-2.1471982],[-79.9671343,-2.1473],[-79.9670753,-2.1470749],[-79.9673704,-2.1469837]]]}},{"type":"Feature","properties":{"name":"9C"},"geometry":{"type":"Polygon","coordinates":[[[-79.9670444,-2.1471753],[-79.967098,-2.1473094],[-79.9668996,-2.1473898],[-79.9668151,-2.1471499],[-79.9669304,-2.1471057],[-79.9669612,-2.1472049],[-79.9670444,-2.1471753]]]}},{"type":"Feature","properties":{"name":"9D"},"geometry":{"type":"Polygon","coordinates":[[[-79.9673639,-2.1475377],[-79.9670353,-2.1476583],[-79.9669951,-2.1475176],[-79.9673237,-2.1474064],[-79.9673639,-2.1475377]]]}},{"type":"Feature","properties":{"name":"9E"},"geometry":{"type":"Polygon","coordinates":[[[-79.9679938,-2.1474488],[-79.9679334,-2.1476097],[-79.9678677,-2.1476325],[-79.9677041,-2.1475427],[-79.967908,-2.147473],[-79.9679938,-2.1474488]]]}},{"type":"Feature","properties":{"name":"9F"},"geometry":{"type":"Polygon","coordinates":[[[-79.9679537,-2.1469798],[-79.9680235,-2.1471955],[-79.9676828,-2.1473001],[-79.9676211,-2.1470856],[-79.9679537,-2.1469798]]]}},{"type":"Feature","properties":{"name":"9G"},"geometry":{"type":"Polygon","coordinates":[[[-79.9681271,-2.1468739],[-79.9680078,-2.1469168],[-79.967993,-2.1468738],[-79.9675933,-2.1470011],[-79.9675618,-2.1469046],[-79.9675812,-2.1468953],[-79.9674967,-2.1466594],[-79.9676335,-2.1466273],[-79.9677073,-2.1468484],[-79.9677985,-2.1468149],[-79.9677703,-2.1467372],[-79.9680439,-2.1466568],[-79.9680707,-2.1467492],[-79.9680895,-2.1467425],[-79.9681271,-2.1468739]]]}},{"type":"Feature","properties":{"name":"9I"},"geometry":{"type":"Polygon","coordinates":[[[-79.967327,-2.145909],[-79.9673913,-2.1461207],[-79.9670507,-2.1462333],[-79.9669863,-2.1460082],[-79.967327,-2.145909]]]}},{"type":"Feature","properties":{"name":"9H"},"geometry":{"type":"Polygon","coordinates":[[[-79.9680131,-2.1465777],[-79.9677328,-2.1466607],[-79.9677086,-2.1465938],[-79.967525,-2.1466393],[-79.9674982,-2.1465469],[-79.9678173,-2.1464423],[-79.9678508,-2.1464343],[-79.9678374,-2.1463954],[-79.9678911,-2.1463754],[-79.9679367,-2.1463619],[-79.9679621,-2.1464169],[-79.9680131,-2.1465777]]]}},{"type":"Feature","properties":{"name":"9K"},"geometry":{"type":"Polygon","coordinates":[[[-79.9670949,-2.1462588],[-79.9671539,-2.1464035],[-79.9669393,-2.1464893],[-79.966883,-2.1463311],[-79.9670949,-2.1462588]]]}},{"type":"Feature","properties":{"name":"9L"},"geometry":{"type":"Polygon","coordinates":[[[-79.967209,-2.1463847],[-79.9672907,-2.1466247],[-79.96706,-2.146701],[-79.9670225,-2.1465362],[-79.9670762,-2.1465175],[-79.9670453,-2.1464571],[-79.967209,-2.1463847]]]}},{"type":"Feature","properties":{"name":"9M"},"geometry":{"type":"Polygon","coordinates":[[[-79.9669595,-2.1468672],[-79.9669944,-2.1469811],[-79.9666926,-2.1470923],[-79.966588,-2.1468135],[-79.966529,-2.1465964],[-79.9667409,-2.146524],[-79.9668025,-2.1467197],[-79.966714,-2.1467492],[-79.9667462,-2.1468484],[-79.9668387,-2.1468162],[-79.9668709,-2.146898],[-79.9669595,-2.1468672]]]}},{"type":"Feature","properties":{"name":"9J - S&C"},"geometry":{"type":"Polygon","coordinates":[[[-79.9669012,-2.1459992],[-79.9669159,-2.1460407],[-79.9668033,-2.1461815],[-79.9666973,-2.1461345],[-79.9666598,-2.1460488],[-79.9668985,-2.1459684],[-79.9669012,-2.1459992]]]}},{"type":"Feature","properties":{"name":"10A - UBEP"},"geometry":{"type":"Polygon","coordinates":[[[-79.9673172,-2.1428809],[-79.9673164,-2.1429862],[-79.967103,-2.1430512],[-79.9669589,-2.1430126],[-79.9669712,-2.1428893],[-79.9671471,-2.1428467],[-79.9673172,-2.1428809]]]}},{"type":"Feature","properties":{"name":"10B"},"geometry":{"type":"Polygon","coordinates":[[[-79.9660415,-2.1430532],[-79.9660715,-2.1431208],[-79.9660894,-2.1431992],[-79.9656259,-2.143363],[-79.965576,-2.143206],[-79.9655992,-2.1432012],[-79.9655662,-2.1430891],[-79.9657795,-2.1430149],[-79.9658195,-2.1431157],[-79.9660415,-2.1430532]]]}},{"type":"Feature","properties":{"name":"10C"},"geometry":{"type":"Polygon","coordinates":[[[-79.9678537,-2.1419394],[-79.967717,-2.141926],[-79.9677196,-2.1418268],[-79.9677974,-2.1418644],[-79.9678537,-2.1419394]]]}},{"type":"Feature","properties":{"name":"10D"},"geometry":{"type":"Polygon","coordinates":[[[-79.9645193,-2.1418419],[-79.964424,-2.1419076],[-79.9643784,-2.1418459],[-79.9644737,-2.1417789],[-79.9645193,-2.1418419]]]}},{"type":"Feature","properties":{"name":"10AD2 - Gimnasio"},"geometry":{"type":"Polygon","coordinates":[[[-79.9682034,-2.143736],[-79.9680103,-2.1438914],[-79.9678091,-2.1436368],[-79.9679861,-2.1434948],[-79.9682034,-2.143736]]]}},{"type":"Feature","properties":{"name":"10AD3 - COLISEO"},"geometry":{"type":"Polygon","coordinates":[[[-79.9674322,-2.1417383],[-79.9673813,-2.1423548],[-79.9670004,-2.1423333],[-79.9670406,-2.1417008],[-79.9674322,-2.1417383]]]}},{"type":"Feature","properties":{"name":"10AD4"},"geometry":{"type":"Polygon","coordinates":[[[-79.9644836,-2.1449598],[-79.9641241,-2.145335],[-79.9639176,-2.1451152],[-79.9642878,-2.1447588],[-79.9644836,-2.1449598]]]}},{"type":"Feature","properties":{"name":"11A - FIEC"},"geometry":{"type":"Polygon","coordinates":[[[-79.9678434,-2.1441921],[-79.9679104,-2.1446987],[-79.9679814,-2.144755],[-79.9679292,-2.1448274],[-79.9679292,-2.1448863],[-79.967783,-2.1449105],[-79.9677978,-2.1450525],[-79.9676583,-2.1450739],[-79.9676274,-2.1448528],[-79.9675939,-2.1448595],[-79.9675832,-2.1447604],[-79.9674531,-2.1447778],[-79.9673417,-2.1447939],[-79.967319,-2.1445794],[-79.9674712,-2.1445593],[-79.9674651,-2.1445366],[-79.9674953,-2.1445104],[-79.9673659,-2.1444052],[-79.9674772,-2.1442537],[-79.9675643,-2.1443167],[-79.9676623,-2.1443061],[-79.9676556,-2.1442109],[-79.9678434,-2.1441921]]]}},{"type":"Feature","properties":{"name":"11B"},"geometry":{"type":"Polygon","coordinates":[[[-79.9672739,-2.1448851],[-79.9673113,-2.1449895],[-79.9674079,-2.1450298],[-79.9673758,-2.1451021],[-79.9674213,-2.145133],[-79.9673865,-2.1452134],[-79.9672993,-2.1451786],[-79.9672456,-2.1452],[-79.9672833,-2.1453247],[-79.9671318,-2.1453836],[-79.9670325,-2.1451048],[-79.9671344,-2.14507],[-79.9671183,-2.1450271],[-79.9670861,-2.1450446],[-79.9670539,-2.1449494],[-79.9672739,-2.1448851]]]}},{"type":"Feature","properties":{"name":"11C"},"geometry":{"type":"Polygon","coordinates":[[[-79.9671064,-2.1453774],[-79.9672163,-2.1457017],[-79.9670849,-2.1457513],[-79.9670594,-2.1456816],[-79.9669468,-2.1457191],[-79.9669937,-2.1458451],[-79.9666625,-2.1459644],[-79.9665927,-2.1457647],[-79.9665337,-2.1457875],[-79.9664519,-2.1455154],[-79.9665887,-2.1454699],[-79.9667054,-2.1454283],[-79.9666866,-2.1453747],[-79.9670058,-2.1452661],[-79.9670514,-2.1453921],[-79.9671064,-2.1453774]]]}},{"type":"Feature","properties":{"name":"11D"},"geometry":{"type":"Polygon","coordinates":[[[-79.9661649,-2.145159],[-79.9662012,-2.1452809],[-79.9660791,-2.1453211],[-79.966118,-2.1454377],[-79.9662387,-2.1453895],[-79.9662722,-2.145486],[-79.9661703,-2.1455235],[-79.9661918,-2.1455852],[-79.9658833,-2.145691],[-79.9657492,-2.145301],[-79.965949,-2.1452314],[-79.9659718,-2.145297],[-79.9660483,-2.1452742],[-79.9660308,-2.1452072],[-79.9661649,-2.145159]]]}},{"type":"Feature","properties":{"name":"11E"},"geometry":{"type":"Polygon","coordinates":[[[-79.966329,-2.1449733],[-79.9663799,-2.1451341],[-79.9662887,-2.145165],[-79.9662592,-2.1451408],[-79.9662284,-2.1450993],[-79.9662203,-2.1450457],[-79.9662284,-2.1450001],[-79.966329,-2.1449733]]]}},{"type":"Feature","properties":{"name":"11F"},"geometry":{"type":"Polygon","coordinates":[[[-79.966348,-2.144897],[-79.9664472,-2.1448595],[-79.9664767,-2.1449533],[-79.9666725,-2.1448863],[-79.9667423,-2.1451061],[-79.9665948,-2.145157],[-79.9665304,-2.1451248],[-79.9664526,-2.1451436],[-79.9664137,-2.145031],[-79.9663896,-2.145035],[-79.966348,-2.144897]]]}},{"type":"Feature","properties":{"name":"11G"},"geometry":{"type":"Polygon","coordinates":[[[-79.9663371,-2.1449613],[-79.9662875,-2.1449781],[-79.9662781,-2.1449312],[-79.9663237,-2.1449138],[-79.9663371,-2.1449613]]]}},{"type":"Feature","properties":{"name":"12A - FIMCP"},"geometry":{"type":"Polygon","coordinates":[[[-79.9660588,-2.1442654],[-79.966095,-2.1443754],[-79.9660708,-2.144386],[-79.9661218,-2.1445107],[-79.9660574,-2.1445402],[-79.9660091,-2.1446246],[-79.9657985,-2.1446836],[-79.9657261,-2.1444772],[-79.9659944,-2.1443848],[-79.9659702,-2.1443016],[-79.9660588,-2.1442654]]]}},{"type":"Feature","properties":{"name":"12B"},"geometry":{"type":"Polygon","coordinates":[[[-79.9655022,-2.1447626],[-79.9655036,-2.1447024],[-79.9654954,-2.1446782],[-79.9655142,-2.1446836],[-79.9655237,-2.1446165],[-79.9655652,-2.1445884],[-79.9655886,-2.1446086],[-79.9656443,-2.1445992],[-79.965651,-2.1446153],[-79.9657047,-2.1446286],[-79.9657235,-2.1447144],[-79.9657295,-2.1447479],[-79.9657127,-2.1447506],[-79.9657046,-2.1447935],[-79.9656699,-2.1448162],[-79.965635,-2.1448217],[-79.9656253,-2.1448344],[-79.9655726,-2.1448337],[-79.9655773,-2.1448149],[-79.9655418,-2.1448068],[-79.965517,-2.1447827],[-79.9655022,-2.1447626]]]}},{"type":"Feature","properties":{"name":"12C"},"geometry":{"type":"Polygon","coordinates":[[[-79.9659512,-2.144819],[-79.9660062,-2.144996],[-79.9656776,-2.1451032],[-79.9656186,-2.1449262],[-79.9657259,-2.14489],[-79.9657473,-2.1449557],[-79.9658868,-2.1449183],[-79.9658627,-2.1448432],[-79.9659512,-2.144819]]]}},{"type":"Feature","properties":{"name":"12D"},"geometry":{"type":"Polygon","coordinates":[[[-79.9662355,-2.1447305],[-79.9662864,-2.144874],[-79.9662462,-2.1448927],[-79.966257,-2.1449342],[-79.9661605,-2.1449771],[-79.9661044,-2.1447726],[-79.9662355,-2.1447305]]]}},{"type":"Feature","properties":{"name":"12E"},"geometry":{"type":"Polygon","coordinates":[[[-79.9663978,-2.1445455],[-79.9664393,-2.1446635],[-79.9664507,-2.1446856],[-79.9664795,-2.1446729],[-79.9665037,-2.1447453],[-79.9662864,-2.1448257],[-79.9662435,-2.144705],[-79.9663079,-2.144689],[-79.966273,-2.1445791],[-79.9663978,-2.1445455]]]}},{"type":"Feature","properties":{"name":"12F"},"geometry":{"type":"Polygon","coordinates":[[[-79.9666083,-2.144496],[-79.9666298,-2.1445777],[-79.9664635,-2.1446407],[-79.9664286,-2.1445549],[-79.9666083,-2.144496]]]}},{"type":"Feature","properties":{"name":"12G"},"geometry":{"type":"Polygon","coordinates":[[[-79.9666029,-2.1444692],[-79.9664191,-2.1445335],[-79.9664084,-2.1445114],[-79.9663695,-2.1445228],[-79.9663373,-2.1444357],[-79.9663212,-2.1443955],[-79.9663065,-2.1443177],[-79.9664821,-2.1442507],[-79.9665117,-2.1443499],[-79.9665693,-2.1443297],[-79.9666163,-2.144441],[-79.9665962,-2.1444504],[-79.9666029,-2.1444692]]]}},{"type":"Feature","properties":{"name":"12H"},"geometry":{"type":"Polygon","coordinates":[[[-79.9665912,-2.1441609],[-79.96661,-2.1441985],[-79.9661835,-2.1443592],[-79.9661742,-2.1443271],[-79.9661339,-2.1443379],[-79.9660923,-2.1442159],[-79.9663297,-2.1441315],[-79.9664289,-2.1440993],[-79.9665577,-2.1440471],[-79.9665912,-2.1441609]]]}},{"type":"Feature","properties":{"name":"12I"},"geometry":{"type":"Polygon","coordinates":[[[-79.9660192,-2.1438407],[-79.9661278,-2.1441797],[-79.9659844,-2.1442294],[-79.9658677,-2.1438956],[-79.9660192,-2.1438407]]]}},{"type":"Feature","properties":{"name":"12J"},"geometry":{"type":"Polygon","coordinates":[[[-79.9663384,-2.1439666],[-79.9663773,-2.1440912],[-79.9661399,-2.144173],[-79.9661036,-2.1440537],[-79.9663384,-2.1439666]]]}},{"type":"Feature","properties":{"name":"12K"},"geometry":{"type":"Polygon","coordinates":[[[-79.9665087,-2.1437482],[-79.9665838,-2.14396],[-79.9665007,-2.1439868],[-79.9665221,-2.1440511],[-79.9663934,-2.144094],[-79.9663102,-2.1438125],[-79.9665087,-2.1437482]]]}},{"type":"Feature","properties":{"name":"12L - STEM"},"geometry":{"type":"Polygon","coordinates":[[[-79.9667148,-2.1434631],[-79.9666825,-2.1435811],[-79.9666061,-2.143573],[-79.966586,-2.1436896],[-79.966358,-2.1437687],[-79.9662562,-2.1437928],[-79.9661864,-2.1437332],[-79.9661179,-2.1437942],[-79.965992,-2.1436816],[-79.9661039,-2.1435576],[-79.9661874,-2.1434983],[-79.9662682,-2.1434565],[-79.9663688,-2.1434323],[-79.9664734,-2.1434149],[-79.9665968,-2.1434323],[-79.9666531,-2.1434531],[-79.9667148,-2.1434631]]]}},{"type":"Feature","properties":{"name":"12M"},"geometry":{"type":"Polygon","coordinates":[[[-79.9670684,-2.1440792],[-79.9669275,-2.1441247],[-79.9668899,-2.1440202],[-79.9670389,-2.1439706],[-79.9670684,-2.1440792]]]}},{"type":"Feature","properties":{"name":"12N - AJA"},"geometry":{"type":"Polygon","coordinates":[[[-79.9672427,-2.1437576],[-79.9672668,-2.1438608],[-79.9672185,-2.1438768],[-79.9672065,-2.1439278],[-79.9670992,-2.143964],[-79.967004,-2.1437749],[-79.9671719,-2.1437183],[-79.9671937,-2.143777],[-79.9672427,-2.1437576]]]}},{"type":"Feature","properties":{"name":"12O - Estación"},"geometry":{"type":"Polygon","coordinates":[[[-79.9654689,-2.1451392],[-79.965249,-2.1452115],[-79.96519,-2.1450212],[-79.9654045,-2.1449435],[-79.9654689,-2.1451392]]]}},{"type":"Feature","properties":{"name":"13A - FICT"},"geometry":{"type":"Polygon","coordinates":[[[-79.9655485,-2.1456056],[-79.9654117,-2.1456525],[-79.9653272,-2.1456123],[-79.9652601,-2.1456324],[-79.9652159,-2.1454837],[-79.9651877,-2.1454944],[-79.9651475,-2.1453738],[-79.9652481,-2.1453416],[-79.9652856,-2.1454502],[-79.9654721,-2.1453778],[-79.9655485,-2.1456056]]]}},{"type":"Feature","properties":{"name":"13B"},"geometry":{"type":"Polygon","coordinates":[[[-79.965228,-2.145621],[-79.9650818,-2.1456732],[-79.965055,-2.1456062],[-79.9650094,-2.145625],[-79.9649906,-2.1455955],[-79.9649638,-2.145499],[-79.9651073,-2.1454481],[-79.9651314,-2.1455472],[-79.9651998,-2.1455298],[-79.965228,-2.145621]]]}},{"type":"Feature","properties":{"name":"13C"},"geometry":{"type":"Polygon","coordinates":[[[-79.9648645,-2.1453665],[-79.9648108,-2.1453853],[-79.9648189,-2.1454081],[-79.9647217,-2.1454459],[-79.9647129,-2.1454168],[-79.9646687,-2.1454362],[-79.9646338,-2.1453531],[-79.964717,-2.1453276],[-79.9646968,-2.1452619],[-79.964835,-2.1452177],[-79.9648806,-2.145081],[-79.9650388,-2.1450247],[-79.965067,-2.1451159],[-79.9651099,-2.1450998],[-79.9651381,-2.1451735],[-79.9650442,-2.1452056],[-79.9650053,-2.1451226],[-79.9649047,-2.1451641],[-79.9649423,-2.1452673],[-79.9648417,-2.1453115],[-79.9648645,-2.1453665]]]}},{"type":"Feature","properties":{"name":"13D"},"geometry":{"type":"Polygon","coordinates":[[[-79.9649683,-2.1455005],[-79.9648758,-2.1455233],[-79.9649147,-2.1456198],[-79.9647296,-2.1456801],[-79.9646706,-2.1454938],[-79.9649415,-2.1453986],[-79.9649683,-2.1454697],[-79.964959,-2.1454817],[-79.9649683,-2.1455005]]]}},{"type":"Feature","properties":{"name":"13E"},"geometry":{"type":"Polygon","coordinates":[[[-79.9650334,-2.1457042],[-79.965067,-2.1457967],[-79.9648591,-2.1458664],[-79.9648283,-2.1457699],[-79.9647625,-2.145798],[-79.9647357,-2.1456975],[-79.9649127,-2.1456412],[-79.9649449,-2.145731],[-79.9650334,-2.1457042]]]}},{"type":"Feature","properties":{"name":"13F"},"geometry":{"type":"Polygon","coordinates":[[[-79.9652681,-2.1459736],[-79.9650039,-2.1460621],[-79.9649771,-2.1459709],[-79.9649033,-2.1459857],[-79.9648738,-2.1459026],[-79.9651099,-2.1458168],[-79.9651367,-2.1459133],[-79.9652426,-2.1458798],[-79.9652681,-2.1459736]]]}},{"type":"Feature","properties":{"name":"13G"},"geometry":{"type":"Polygon","coordinates":[[[-79.9656831,-2.1459049],[-79.9654591,-2.1459866],[-79.9654028,-2.1458057],[-79.9655154,-2.1457682],[-79.9655369,-2.1458325],[-79.9656482,-2.145795],[-79.9656831,-2.1459049]]]}},{"type":"Feature","properties":{"name":"13H"},"geometry":{"type":"Polygon","coordinates":[[[-79.9657153,-2.1461728],[-79.9656281,-2.1459463],[-79.9656925,-2.1459115],[-79.9657166,-2.1458578],[-79.9656817,-2.1458458],[-79.9657394,-2.1457171],[-79.9659942,-2.145819],[-79.9660224,-2.1458913],[-79.9659553,-2.1460723],[-79.9657153,-2.1461728]]]}},{"type":"Feature","properties":{"name":"13I - FEPOL"},"geometry":{"type":"Polygon","coordinates":[[[-79.9663563,-2.1460933],[-79.9662369,-2.1461375],[-79.9661671,-2.1459084],[-79.9662208,-2.1458856],[-79.9662826,-2.1458588],[-79.9663563,-2.1460933]]]}},{"type":"Feature","properties":{"name":"13J"},"geometry":{"type":"Polygon","coordinates":[[[-79.9656402,-2.1460495],[-79.9656844,-2.146213],[-79.9656161,-2.1462398],[-79.9655664,-2.1460616],[-79.9656402,-2.1460495]]]}},{"type":"Feature","properties":{"name":"13K - GTSI"},"geometry":{"type":"Polygon","coordinates":[[[-79.9653302,-2.1466054],[-79.9650579,-2.1467032],[-79.965011,-2.1465612],[-79.9650539,-2.1464633],[-79.9652015,-2.1464192],[-79.9653127,-2.146474],[-79.9653289,-2.1465424],[-79.9653134,-2.1465672],[-79.9653302,-2.1466054]]]}},{"type":"Feature","properties":{"name":"13L"},"geometry":{"type":"Polygon","coordinates":[[[-79.9648677,-2.1461156],[-79.9649429,-2.1460861],[-79.9649751,-2.1461571],[-79.9650864,-2.1461089],[-79.9651642,-2.146326],[-79.9650837,-2.1463488],[-79.9650595,-2.1462805],[-79.9649375,-2.1463287],[-79.9648677,-2.1461156]]]}},{"type":"Feature","properties":{"name":"13M - Comedor"},"geometry":{"type":"Polygon","coordinates":[[[-79.9645766,-2.1461913],[-79.9648088,-2.1463065],[-79.9646732,-2.1465572],[-79.9646109,-2.1465284],[-79.9644989,-2.1465665],[-79.9644506,-2.146442],[-79.964515,-2.1463106],[-79.9645766,-2.1461913]]]}},{"type":"Feature","properties":{"name":"13N - CEMA"},"geometry":{"type":"Polygon","coordinates":[[[-79.96437,-2.1462188],[-79.9642171,-2.1462671],[-79.9641554,-2.1460821],[-79.9643083,-2.1460419],[-79.96437,-2.1462188]]]}},{"type":"Feature","properties":{"name":"14A - FADCOM"},"geometry":{"type":"Polygon","coordinates":[[[-79.9625528,-2.1440438],[-79.9625273,-2.144076],[-79.9625836,-2.1441148],[-79.9625836,-2.1441483],[-79.9625675,-2.1441886],[-79.9625394,-2.1442087],[-79.9625152,-2.144214],[-79.9624549,-2.1441604],[-79.9624361,-2.1441939],[-79.9622336,-2.1440318],[-79.9622524,-2.144009],[-79.962192,-2.1439621],[-79.9622027,-2.1439138],[-79.9622376,-2.143883],[-79.9622765,-2.1438683],[-79.9623275,-2.1439098],[-79.9623543,-2.143879],[-79.9625528,-2.1440438]]]}},{"type":"Feature","properties":{"name":"14B"},"geometry":{"type":"Polygon","coordinates":[[[-79.9622067,-2.1433087],[-79.9622846,-2.143231],[-79.9623449,-2.1432892],[-79.9623945,-2.1433836],[-79.9624052,-2.143531],[-79.9623744,-2.1436557],[-79.9623006,-2.1437535],[-79.9622081,-2.1438085],[-79.9620619,-2.1438326],[-79.9619372,-2.1438044],[-79.9618346,-2.1437341],[-79.9617708,-2.1436557],[-79.9618822,-2.1435954],[-79.9619573,-2.1436785],[-79.9620257,-2.143716],[-79.9621343,-2.1437093],[-79.9621812,-2.1436756],[-79.9621604,-2.1436507],[-79.9621366,-2.1436792],[-79.9621142,-2.1436513],[-79.962137,-2.1436228],[-79.9621128,-2.1435845],[-79.961982,-2.1436755],[-79.9619263,-2.1435951],[-79.9618903,-2.1435631],[-79.9621781,-2.1433501],[-79.9622328,-2.1434184],[-79.9622642,-2.1434727],[-79.9621706,-2.1435528],[-79.9622042,-2.1435755],[-79.9622366,-2.1435498],[-79.9622488,-2.1435652],[-79.9622329,-2.1436008],[-79.9621943,-2.1436349],[-79.9622134,-2.1436504],[-79.9622765,-2.143582],[-79.9622872,-2.1434707],[-79.9622523,-2.1434091],[-79.9621812,-2.1433348],[-79.9622067,-2.1433087]]]}},{"type":"Feature","properties":{"name":"14C"},"geometry":{"type":"Polygon","coordinates":[[[-79.9614603,-2.1433415],[-79.9615086,-2.1435533],[-79.9612994,-2.1436015],[-79.9612484,-2.1433925],[-79.9614603,-2.1433415]]]}},{"type":"Feature","properties":{"name":"14D"},"geometry":{"type":"Polygon","coordinates":[[[-79.9625165,-2.1404764],[-79.9624978,-2.1405435],[-79.9624119,-2.1405354],[-79.9624388,-2.1404523],[-79.9625165,-2.1404764]]]}},{"type":"Feature","properties":{"name":"14E"},"geometry":{"type":"Polygon","coordinates":[[[-79.9628921,-2.1401387],[-79.9628384,-2.1402701],[-79.9627043,-2.1402272],[-79.9627338,-2.1401736],[-79.9627767,-2.140187],[-79.9627982,-2.1401039],[-79.9628921,-2.1401387]]]}}]}