{"type":"FeatureCollection","features":[{"type":"Feature","properties":{"name":"1A - CTI"},"geometry":{"type":"Polygon","coordinates":[[[-79.9492938,-2.145742],[-79.9493038,-2.1457842],[-79.9492888,-2.1458402],[-79.949296,-2.1458789],[-79.9493049,-2.145917],[-79.9492911,-2.1459497],[-79.9492576,-2.1459752],[-79.9492173,-2.146002],[-79.9491717,-2.1460074],[-79.9490725,-2.1460054],[-79.9489705,-2.1460007],[-79.9489182,-2.1459659],[-79.9488974,-2.1459873],[-79.9489544,-2.1460463],[-79.9489021,-2.1460784],[-79.9488371,-2.1461065],[-79.948772,-2.1461106],[-79.9486687,-2.1460999],[-79.9485976,-2.1460678],[-79.9485373,-2.1459981],[-79.9485038,-2.145923],[-79.9484971,-2.1458607],[-79.9484984,-2.1458011],[-79.948528,-2.1457127],[-79.9485681,-2.145657],[-79.9486217,-2.1456108],[-79.9486787,-2.145584],[-79.9487358,-2.1455679],[-79.9488156,-2.1455692],[-79.9488927,-2.1455893],[-79.9489652,-2.1456389],[-79.9488985,-2.1456901],[-79.9489229,-2.1457092],[-79.9489719,-2.1456777],[-79.9490268,-2.1456764],[-79.9492093,-2.1456764],[-79.9492938,-2.145742]]]}},{"type":"Feature","properties":{"name":"2A - Admisiones"},"geometry":{"type":"Polygon","coordinates":[[[-79.9496142,-2.1503827],[-79.9493768,-2.1504417],[-79.94935,-2.1504752],[-79.9490656,-2.1502729],[-79.94913,-2.1502434],[-79.9491528,-2.1502086],[-79.9491126,-2.1501911],[-79.9490777,-2.1501724],[-79.9490616,-2.1501576],[-79.9490576,-2.1501281],[-79.9493258,-2.1497153],[-79.9494358,-2.1497824],[-79.9494466,-2.1497422],[-79.94959,-2.1497877],[-79.9494734,-2.1502058],[-79.9495606,-2.1502742],[-79.9495981,-2.1503265],[-79.9496142,-2.1503827]]]}},{"type":"Feature","properties":{"name":"3A - FCV & CIDIS"},"geometry":{"type":"Polygon","coordinates":[[[-79.9568754,-2.1516956],[-79.9568723,-2.1518399],[-79.9570454,-2.1518396],[-79.9570504,-2.1520456],[-79.9568024,-2.1520516],[-79.9568004,-2.1520366],[-79.9566964,-2.1520396],[-79.9566944,-2.1520636],[-79.9564984,-2.1520676],[-79.9565024,-2.1519536],[-79.9565374,-2.1519536],[-79.9565344,-2.1518968],[-79.9564944,-2.1518945],[-79.9564971,-2.1517298],[-79.956635,-2.1517278],[-79.9566744,-2.1517282],[-79.9566744,-2.1518006],[-79.9566968,-2.1517966],[-79.9566992,-2.1516892],[-79.9568754,-2.1516956]]]}},{"type":"Feature","properties":{"name":"4A - Residencia"},"geometry":{"type":"Polygon","coordinates":[[[-79.957147,-2.1536548],[-79.957096,-2.1537647],[-79.9571389,-2.1537754],[-79.9571121,-2.1538224],[-79.9567178,-2.1536575],[-79.9567419,-2.1536039],[-79.9567688,-2.1536106],[-79.9568157,-2.1535021],[-79.9568747,-2.1535302],[-79.9568264,-2.1536388],[-79.957037,-2.1537218],[-79.9570826,-2.1536186],[-79.957147,-2.1536548]]]}},{"type":"Feature","properties":{"name":"5A - FIMCM"},"geometry":{"type":"Polygon","coordinates":[[[-79.9630211,-2.1469034],[-79.9628149,-2.1469485],[-79.9628856,-2.1469731],[-79.9626912,-2.1470401],[-79.9626469,-2.1469034],[-79.9627394,-2.146882],[-79.9627099,-2.1467935],[-79.9629124,-2.1467412],[-79.9629419,-2.146827],[-79.9629916,-2.1468096],[-79.9630211,-2.1469034]]]}},{"type":"Feature","properties":{"name":"6A - RECTORADO"},"geometry":{"type":"Polygon","coordinates":[[[-79.9650047,-2.1476777],[-79.9647338,-2.1475625],[-79.9644656,-2.147659],[-79.9643717,-2.1478466],[-79.9640901,-2.1479484],[-79.9640043,-2.1477018],[-79.9640713,-2.1476696],[-79.9640552,-2.1476013],[-79.9642376,-2.147541],[-79.9642718,-2.1476046],[-79.9643221,-2.1476013],[-79.9643329,-2.1475437],[-79.9643682,-2.147478],[-79.9643471,-2.1474633],[-79.9643715,-2.1474191],[-79.9643965,-2.1474123],[-79.9644173,-2.1473668],[-79.9643892,-2.1472542],[-79.964538,-2.1471979],[-79.9645796,-2.1472314],[-79.9646212,-2.147348],[-79.964641,-2.1473634],[-79.9646662,-2.1473333],[-79.9648036,-2.1472837],[-79.9648357,-2.1473775],[-79.9649282,-2.147348],[-79.9649631,-2.1474471],[-79.9649457,-2.1474766],[-79.9650047,-2.1476777]]]}},{"type":"Feature","properties":{"name":"7A - BIBLIOTECA"},"geometry":{"type":"Polygon","coordinates":[[[-79.9663758,-2.1469586],[-79.9663758,-2.1470671],[-79.9662726,-2.147055],[-79.9662296,-2.1472373],[-79.9662645,-2.1472641],[-79.9663101,-2.1472132],[-79.9663208,-2.1472909],[-79.9663825,-2.1473485],[-79.9663905,-2.1477358],[-79.9659346,-2.1477332],[-79.9659238,-2.1476434],[-79.9658628,-2.147646],[-79.9658689,-2.1475656],[-79.9659252,-2.1475603],[-79.9659238,-2.1474986],[-79.9659828,-2.1474464],[-79.9659856,-2.1472253],[-79.9660365,-2.1472728],[-79.9660606,-2.1472493],[-79.965999,-2.1470403],[-79.9659936,-2.1469545],[-79.9662564,-2.1469304],[-79.9663054,-2.1469498],[-79.9663758,-2.1469586]]]}},{"type":"Feature","properties":{"name":"8A - FCSH"},"geometry":{"type":"Polygon","coordinates":[[[-79.9687531,-2.1476811],[-79.9686297,-2.1476181],[-79.9686901,-2.1474867],[-79.9688148,-2.1475564],[-79.9688497,-2.1474907],[-79.968961,-2.1475417],[-79.9689784,-2.1475846],[-79.9689275,-2.147669],[-79.9689597,-2.1476811],[-79.968855,-2.1478633],[-79.9688859,-2.1478821],[-79.9688081,-2.1480308],[-79.9687491,-2.1480027],[-79.9686874,-2.1479531],[-79.9686673,-2.1479276],[-79.9686821,-2.1478446],[-79.9686606,-2.1478311],[-79.9686538,-2.1478137],[-79.9686485,-2.1477842],[-79.9686579,-2.1477561],[-79.9686968,-2.147736],[-79.968725,-2.14774],[-79.9687531,-2.1476811]]]}},{"type":"Feature","properties":{"name":"9A - FCNM"},"geometry":{"type":"Polygon","coordinates":[[[-79.9671963,-2.146776],[-79.9672554,-2.1469502],[-79.9670488,-2.1470092],[-79.9669845,-2.1468457],[-79.9671963,-2.146776]]]}},{"type":"Feature","properties":{"name":"10A - UBEP"},"geometry":{"type":"Polygon","coordinates":[[[-79.9673172,-2.1428809],[-79.9673164,-2.1429862],[-79.967103,-2.1430512],[-79.9669589,-2.1430126],[-79.9669712,-2.1428893],[-79.9671471,-2.1428467],[-79.9673172,-2.1428809]]]}},{"type":"Feature","properties":{"name":"11A - FIEC"},"geometry":{"type":"Polygon","coordinates":[[[-79.9678434,-2.1441921],[-79.9679104,-2.1446987],[-79.9679814,-2.144755],[-79.9679292,-2.1448274],[-79.9679292,-2.1448863],[-79.967783,-2.1449105],[-79.9677978,-2.1450525],[-79.9676583,-2.1450739],[-79.9676274,-2.1448528],[-79.9675939,-2.1448595],[-79.9675832,-2.1447604],[-79.9674531,-2.1447778],[-79.9673417,-2.1447939],[-79.967319,-2.1445794],[-79.9674712,-2.1445593],[-79.9674651,-2.1445366],[-79.9674953,-2.1445104],[-79.9673659,-2.1444052],[-79.9674772,-2.1442537],[-79.9675643,-2.1443167],[-79.9676623,-2.1443061],[-79.9676556,-2.1442109],[-79.9678434,-2.1441921]]]}},{"type":"Feature","properties":{"name":"12A - FIMCP"},"geometry":{"type":"Polygon","coordinates":[[[-79.9660588,-2.1442654],[-79.966095,-2.1443754],[-79.9660708,-2.144386],[-79.9661218,-2.1445107],[-79.9660574,-2.1445402],[-79.9660091,-2.1446246],[-79.9657985,-2.1446836],[-79.9657261,-2.1444772],[-79.9659944,-2.1443848],[-79.9659702,-2.1443016],[-79.9660588,-2.1442654]]]}},{"type":"Feature","properties":{"name":"13A - FICT"},"geometry":{"type":"Polygon","coordinates":[[[-79.9655485,-2.1456056],[-79.9654117,-2.1456525],[-79.9653272,-2.1456123],[-79.9652601,-2.1456324],[-79.9652159,-2.1454837],[-79.9651877,-2.1454944],[-79.9651475,-2.1453738],[-79.9652481,-2.1453416],[-79.9652856,-2.1454502],[-79.9654721,-2.1453778],[-79.9655485,-2.1456056]]]}},{"type":"Feature","properties":{"name":"14A - FADCOM"},"geometry":{"type":"Polygon","coordinates":[[[-79.9625528,-2.1440438],[-79.9625273,-2.144076],[-79.9625836,-2.1441148],[-79.9625836,-2.1441483],[-79.9625675,-2.1441886],[-79.9625394,-2.1442087],[-79.9625152,-2.144214],[-79.9624549,-2.1441604],[-79.9624361,-2.1441939],[-79.9622336,-2.1440318],[-79.9622524,-2.144009],[-79.962192,-2.1439621],[-79.9622027,-2.1439138],[-79.9622376,-2.143883],[-79.9622765,-2.1438683],[-79.9623275,-2.1439098],[-79.9623543,-2.143879],[-79.9625528,-2.1440438]]]}}]}