{"type":"FeatureCollection","features":[{"type":"Feature","properties":{"name":"Ciclovía Principal"},"geometry":{"type":"LineString","coordinates":[[-79.9534935,-2.1518234],[-79.953625,-2.1517269],[-79.9537537,-2.1516947],[-79.9539039,-2.1514347],[-79.9542955,-2.1514213],[-79.9547139,-2.1514052],[-79.955127,-2.1514883],[-79.9554596,-2.15155],[-79.9560564,-2.1515421],[-79.9561395,-2.151526],[-79.9563997,-2.1513223],[-79.9564748,-2.1512821],[-79.9569334,-2.1512473],[-79.9572982,-2.1511152],[-79.9574028,-2.1510871],[-79.9574993,-2.1510857],[-79.958025,-2.1510871],[-79.9581068,-2.1510884],[-79.958186,-2.1510549],[-79.9583,-2.1509799],[-79.9587921,-2.1505258],[-79.9589074,-2.1504454],[-79.9590523,-2.1503569],[-79.9591971,-2.1502899],[-79.9593553,-2.1502336],[-79.9595109,-2.1501934],[-79.9596718,-2.15018],[-79.9598623,-2.1501881],[-79.9600688,-2.1502336],[-79.9602592,-2.1502819],[-79.9615843,-2.1506667],[-79.9617211,-2.1506774],[-79.9618499,-2.1506533],[-79.961992,-2.1506184],[-79.9620939,-2.1505648],[-79.9621851,-2.1505139],[-79.9623139,-2.1503986],[-79.9632197,-2.1495612],[-79.9634826,-2.1493602],[-79.9636569,-2.1492101],[-79.9639117,-2.1489635],[-79.9640217,-2.1488831],[-79.9639922,-2.1488295]]}},{"type":"Feature","properties":{"name":"Circuito Lago ⚠️"},"geometry":{"type":"LineString","coordinates":[[-79.963235,-2.148106],[-79.963213,-2.148193],[-79.96309,-2.148295],[-79.962929,-2.148346],[-79.962776,-2.148311],[-79.962594,-2.148314],[-79.962454,-2.148375],[-79.962352,-2.148488],[-79.962352,-2.148515],[-79.962369,-2.148542],[-79.962546,-2.148665],[-79.962599,-2.14878],[-79.96254,-2.149011],[-79.96254,-2.149067],[-79.962516,-2.149064],[-79.962473,-2.149056],[-79.962433,-2.149043],[-79.96239,-2.148989],[-79.962312,-2.148997],[-79.962293,-2.149056],[-79.962323,-2.149155],[-79.962406,-2.149255],[-79.962562,-2.149298],[-79.962674,-2.149322],[-79.962798,-2.14937],[-79.962849,-2.149389],[-79.962798,-2.149429],[-79.962578,-2.1496],[-79.962318,-2.149673],[-79.962181,-2.149646],[-79.962047,-2.149582],[-79.962022,-2.149659],[-79.962036,-2.149756],[-79.962052,-2.149804],[-79.961905,-2.149834],[-79.961878,-2.149957],[-79.961899,-2.150016],[-79.961907,-2.150056],[-79.961829,-2.150152],[-79.961642,-2.150262],[-79.961572,-2.150337],[-79.961489,-2.150359],[-79.961427,-2.150292]]}},{"type":"Feature","properties":{"name":"Atajo Ípili ⛔"},"geometry":{"type":"LineString","coordinates":[[-79.962587,-2.14287],[-79.962563,-2.14295],[-79.962563,-2.143],[-79.962558,-2.143026],[-79.96256,-2.143046],[-79.962577,-2.143041],[-79.96259,-2.143031],[-79.962601,-2.143029],[-79.962614,-2.143032],[-79.962627,-2.143037],[-79.96264,-2.143043],[-79.962653,-2.143048],[-79.962673,-2.143061],[-79.962693,-2.143068],[-79.962706,-2.143071],[-79.962723,-2.143075],[-79.962736,-2.143092],[-79.962747,-2.143105],[-79.962754,-2.143118],[-79.962752,-2.143128],[-79.96275,-2.143147],[-79.962744,-2.143159],[-79.962738,-2.143171],[-79.962732,-2.143183],[-79.962726,-2.143196],[-79.962722,-2.143208],[-79.962719,-2.14322],[-79.962718,-2.143233],[-79.962721,-2.143243],[-79.962725,-2.143254],[-79.962731,-2.143264],[-79.962738,-2.143273],[-79.962747,-2.143281],[-79.962757,-2.143286],[-79.962766,-2.143289],[-79.962779,-2.143291],[-79.962789,-2.143292],[-79.962802,-2.143295],[-79.962811,-2.143297],[-79.962818,-2.14329],[-79.962819,-2.143281],[-79.962828,-2.143278],[-79.96283,-2.143269],[-79.962829,-2.14326],[-79.96284,-2.14326],[-79.96285,-2.143271],[-79.962859,-2.143281],[-79.962865,-2.143291],[-79.962871,-2.143299],[-79.962877,-2.143308],[-79.962882,-2.143316],[-79.962892,-2.143316],[-79.962895,-2.143327],[-79.962896,-2.143339],[-79.9629,-2.143349],[-79.962903,-2.143365],[-79.962905,-2.143378],[-79.962906,-2.143393],[-79.96291,-2.143407],[-79.962916,-2.143418],[-79.962921,-2.143427],[-79.962925,-2.143437],[-79.962932,-2.143444],[-79.962939,-2.143452],[-79.962956,-2.143459],[-79.962966,-2.14346],[-79.96298,-2.14346],[-79.96299,-2.143459],[-79.963004,-2.143455],[-79.963015,-2.143451],[-79.963026,-2.143449],[-79.963036,-2.143448],[-79.963049,-2.143444],[-79.963058,-2.143439],[-79.963072,-2.143431],[-79.963085,-2.143424],[-79.963097,-2.143422],[-79.963107,-2.14342],[-79.963116,-2.143419],[-79.963128,-2.143419],[-79.963147,-2.143413],[-79.963166,-2.14341],[-79.963179,-2.143406],[-79.963191,-2.143403],[-79.963202,-2.143406],[-79.963212,-2.143412],[-79.963224,-2.143415],[-79.963238,-2.143412],[-79.963247,-2.143409],[-79.963266,-2.143403],[-79.963279,-2.143403],[-79.963291,-2.143401],[-79.963307,-2.1434],[-79.963322,-2.143405],[-79.963329,-2.143415],[-79.963336,-2.143425],[-79.963333,-2.143434],[-79.963339,-2.143446],[-79.963345,-2.143454],[-79.963346,-2.143465],[-79.963347,-2.143475],[-79.963347,-2.143486],[-79.963348,-2.143495],[-79.963345,-2.143504],[-79.963336,-2.143511],[-79.963324,-2.143516],[-79.963309,-2.143521],[-79.963295,-2.143525],[-79.96328,-2.143526],[-79.96327,-2.143531],[-79.963256,-2.143538],[-79.963244,-2.143544],[-79.963224,-2.143548],[-79.963215,-2.14355],[-79.963204,-2.143553],[-79.963194,-2.143553],[-79.963181,-2.143554],[-79.963172,-2.143557],[-79.963161,-2.143562],[-79.963153,-2.143568],[-79.963146,-2.143573],[-79.963143,-2.143576],[-79.963143,-2.14359],[-79.96314,-2.143597],[-79.96314,-2.143606],[-79.96314,-2.143611],[-79.963147,-2.143622],[-79.963151,-2.143635],[-79.963159,-2.143643],[-79.96317,-2.143651],[-79.963182,-2.143658],[-79.963193,-2.143662],[-79.963211,-2.143662],[-79.963223,-2.143654],[-79.963231,-2.14365],[-79.963242,-2.143648],[-79.963255,-2.143649],[-79.963265,-2.143651],[-79.963278,-2.143654],[-79.963288,-2.14366],[-79.963292,-2.14367],[-79.9633,-2.143676],[-79.963306,-2.143683],[-79.96331,-2.143692],[-79.963315,-2.1437],[-79.96332,-2.143709],[-79.963324,-2.143721],[-79.963321,-2.14373],[-79.963315,-2.143737],[-79.963304,-2.14374],[-79.963296,-2.143745],[-79.963285,-2.143748],[-79.963276,-2.143756],[-79.96327,-2.143768],[-79.963267,-2.14378],[-79.963269,-2.143794],[-79.963269,-2.143806],[-79.963267,-2.14382],[-79.963266,-2.143831],[-79.963263,-2.143843],[-79.963257,-2.143853],[-79.963248,-2.143866],[-79.963242,-2.143876],[-79.963236,-2.143885],[-79.963227,-2.14389],[-79.963218,-2.143895],[-79.963208,-2.143899],[-79.963199,-2.143901],[-79.963189,-2.143904],[-79.963179,-2.143903],[-79.963168,-2.143904],[-79.963158,-2.143899],[-79.96315,-2.143894],[-79.96314,-2.143893],[-79.96313,-2.143892],[-79.96312,-2.143896],[-79.963108,-2.1439],[-79.963099,-2.143902],[-79.96309,-2.143907],[-79.963081,-2.143914],[-79.963074,-2.143922],[-79.963066,-2.143931],[-79.963061,-2.143938],[-79.96305,-2.143939],[-79.963044,-2.143948],[-79.963035,-2.143953],[-79.963024,-2.143957],[-79.963011,-2.143959],[-79.962997,-2.143962],[-79.962987,-2.143966],[-79.962977,-2.143969],[-79.962968,-2.143973],[-79.962958,-2.14398],[-79.962947,-2.143985],[-79.962933,-2.143988],[-79.962923,-2.143987],[-79.962912,-2.143992],[-79.962902,-2.143998],[-79.962896,-2.144011],[-79.962887,-2.144025],[-79.962878,-2.144038],[-79.962869,-2.14405],[-79.962858,-2.144063],[-79.962844,-2.144071],[-79.962833,-2.144076],[-79.96282,-2.144085],[-79.962806,-2.144099],[-79.962797,-2.144111],[-79.962788,-2.14412],[-79.962781,-2.144133],[-79.96277,-2.144141],[-79.962761,-2.14415],[-79.962753,-2.144162],[-79.962746,-2.144169],[-79.962735,-2.14417],[-79.962726,-2.144179],[-79.962718,-2.144183],[-79.962709,-2.144188],[-79.962698,-2.144202],[-79.962684,-2.144218],[-79.962676,-2.144224]]}},{"type":"Feature","properties":{"name":"Atajo Piní ⛔"},"geometry":{"type":"LineString","coordinates":[[-79.962587,-2.14287],[-79.962597,-2.14287],[-79.962614,-2.142872],[-79.962632,-2.142876],[-79.962648,-2.142877],[-79.962666,-2.142883],[-79.962695,-2.142892],[-79.962716,-2.142895],[-79.962747,-2.142896],[-79.962768,-2.142897],[-79.962796,-2.142893],[-79.962814,-2.142886],[-79.962841,-2.142875],[-79.962856,-2.142866],[-79.962871,-2.142851],[-79.962893,-2.142826],[-79.962917,-2.142797],[-79.962933,-2.142776],[-79.96295,-2.142759],[-79.962961,-2.142746],[-79.962976,-2.142728],[-79.962992,-2.142706],[-79.96301,-2.142681],[-79.963024,-2.142653],[-79.963033,-2.142625],[-79.963041,-2.142609],[-79.963054,-2.142576],[-79.963075,-2.142554],[-79.963093,-2.142526],[-79.963108,-2.142496],[-79.963114,-2.14248],[-79.963117,-2.142458],[-79.963124,-2.142422],[-79.963134,-2.142397],[-79.963137,-2.14238],[-79.963142,-2.142365],[-79.963148,-2.142351],[-79.963149,-2.142344],[-79.963152,-2.142339],[-79.963158,-2.142325],[-79.963159,-2.142309],[-79.963155,-2.142291],[-79.963146,-2.142275],[-79.963143,-2.142246],[-79.963145,-2.142225],[-79.963152,-2.142215],[-79.963154,-2.142211],[-79.963153,-2.142209]]}},{"type":"Feature","properties":{"name":"Poliducto ⚠️"},"geometry":{"type":"LineString","coordinates":[[-79.968279,-2.139663],[-79.968615,-2.140453],[-79.968649,-2.14144],[-79.968572,-2.142216],[-79.968676,-2.142685],[-79.968669,-2.143476],[-79.968821,-2.144358],[-79.969077,-2.145771],[-79.969258,-2.146499],[-79.96957,-2.1478],[-79.969799,-2.148479],[-79.969972,-2.14906],[-79.970125,-2.14941],[-79.970201,-2.149879],[-79.970284,-2.150446],[-79.970437,-2.15111],[-79.970604,-2.151572],[-79.970749,-2.151999],[-79.971041,-2.152503],[-79.971298,-2.152944],[-79.97152,-2.153413],[-79.971666,-2.1537],[-79.971879,-2.154222]]}},{"type":"Feature","properties":{"name":"Centro de interpretación a canchas"},"geometry":{"type":"LineString","coordinates":[[-79.961074,-2.152639],[-79.960917,-2.152909],[-79.960844,-2.153013],[-79.960624,-2.153259],[-79.960468,-2.15343],[-79.960327,-2.153569],[-79.96018,-2.153699],[-79.960096,-2.153759],[-79.960097,-2.153827],[-79.960083,-2.153877],[-79.960051,-2.153945],[-79.959881,-2.15414],[-79.959756,-2.154273],[-79.959623,-2.154381],[-79.959368,-2.154535],[-79.959246,-2.154593],[-79.959116,-2.15463],[-79.959019,-2.154641]]}},{"type":"Feature","properties":{"name":"Carmín"},"geometry":{"type":"LineString","coordinates":[[-79.962987,-2.154803],[-79.963004,-2.154944],[-79.963052,-2.155162],[-79.963021,-2.155305],[-79.962972,-2.155517],[-79.962914,-2.155755],[-79.962905,-2.155851],[-79.962894,-2.155941],[-79.962876,-2.156033],[-79.962874,-2.156123],[-79.962827,-2.156142],[-79.962724,-2.156145],[-79.962657,-2.156141],[-79.960369,-2.155225],[-79.959648,-2.15493],[-79.959104,-2.154708],[-79.959054,-2.154678],[-79.959019,-2.154641]]}},{"type":"Feature","properties":{"name":"Saibuchi Mirador ⛔"},"geometry":{"type":"LineString","coordinates":[[-79.961181,-2.152698],[-79.9611235,-2.1526714],[-79.961293,-2.15274],[-79.961378,-2.152711],[-79.96147,-2.152707],[-79.961525,-2.152782],[-79.961611,-2.152834],[-79.961695,-2.152879],[-79.961782,-2.15292],[-79.961871,-2.152949],[-79.961958,-2.152981],[-79.962055,-2.15297],[-79.962149,-2.152967],[-79.962235,-2.152938],[-79.962304,-2.152878],[-79.962385,-2.152826],[-79.962466,-2.152787],[-79.962548,-2.15274],[-79.962638,-2.152736],[-79.962727,-2.152718],[-79.96282,-2.1527],[-79.962915,-2.152719],[-79.963007,-2.152709],[-79.963081,-2.152651],[-79.9631482,-2.152654],[-79.96326,-2.152688],[-79.96335,-2.152682],[-79.96343,-2.152638],[-79.963521,-2.152614],[-79.963602,-2.152572],[-79.963679,-2.152514],[-79.963776,-2.1525],[-79.963869,-2.152474],[-79.963964,-2.152468],[-79.964056,-2.152466],[-79.964146,-2.152453],[-79.96424,-2.152439],[-79.964316,-2.1525],[-79.964338,-2.152589],[-79.964306,-2.152679],[-79.964268,-2.152768],[-79.964189,-2.152816],[-79.964119,-2.152879],[-79.964076,-2.152962],[-79.963993,-2.153005],[-79.9639311,-2.1530788],[-79.963864,-2.153128],[-79.9638402,-2.1532083],[-79.96379,-2.153269],[-79.963701,-2.153305],[-79.963634,-2.153368],[-79.96358,-2.153443],[-79.963526,-2.153517],[-79.963489,-2.153601],[-79.963424,-2.153672],[-79.963375,-2.153748],[-79.963361,-2.153843],[-79.963352,-2.153933],[-79.963337,-2.154025],[-79.963295,-2.154108],[-79.963265,-2.154195],[-79.963224,-2.154281],[-79.963172,-2.154362],[-79.963106,-2.154429],[-79.9630452,-2.1544785],[-79.963023,-2.154533],[-79.963035,-2.154625],[-79.963009,-2.154712],[-79.962987,-2.154803],[-79.962972,-2.154803],[-79.962928,-2.154886],[-79.962903,-2.154979],[-79.962859,-2.155067],[-79.962819,-2.155149],[-79.962772,-2.155234],[-79.962712,-2.155305],[-79.962682,-2.155395],[-79.962749,-2.15546],[-79.962689,-2.155531],[-79.962636,-2.15561]]}},{"type":"Feature","properties":{"name":"Bajada Marítima"},"geometry":{"type":"LineString","coordinates":[[-79.9639895,-2.1488772],[-79.9637345,-2.1485235],[-79.96352,-2.1482716],[-79.9631659,-2.1480679],[-79.962946,-2.1478749],[-79.9626187,-2.1474085],[-79.9624095,-2.1470708],[-79.9622862,-2.1468028],[-79.9622969,-2.1466044],[-79.9623076,-2.14639],[-79.9622647,-2.1462399],[-79.962282,-2.146108]]}},{"type":"Feature","properties":{"name":"Bajada FADCOM"},"geometry":{"type":"LineString","coordinates":[[-79.961931,-2.144018],[-79.9616563,-2.1437734],[-79.9614096,-2.143709],[-79.9612755,-2.1437626],[-79.9611253,-2.143902],[-79.9605727,-2.1446257],[-79.9603635,-2.144942],[-79.9602991,-2.1451242],[-79.9602991,-2.1453279],[-79.9602991,-2.1458158],[-79.9602616,-2.1460624],[-79.9601918,-2.1462393],[-79.9600309,-2.1464215],[-79.9596715,-2.1467003],[-79.9592082,-2.1470857],[-79.9588863,-2.1473751],[-79.9587576,-2.1476968],[-79.9587576,-2.1480827],[-79.9588863,-2.1484902],[-79.9590687,-2.1489833],[-79.9591975,-2.1495087],[-79.9591975,-2.1498518],[-79.9590523,-2.1503569]]}},{"type":"Feature","properties":{"name":"Subida BVPP ⚠️"},"geometry":{"type":"LineString","coordinates":[[-79.9643703,-2.1419889],[-79.9641557,-2.1421283],[-79.9638607,-2.1422462],[-79.96363,-2.1422891],[-79.9633296,-2.1422355],[-79.9631258,-2.1421766],[-79.9627771,-2.142332],[-79.9623694,-2.1425572],[-79.9618812,-2.1429002],[-79.9615379,-2.1431468],[-79.9611087,-2.1433505],[-79.9609585,-2.1435221],[-79.9609156,-2.1437204],[-79.9609478,-2.1438759],[-79.9610712,-2.1439777]]}},{"type":"Feature","properties":{"name":"Subida BVPP"},"geometry":{"type":"LineString","coordinates":[[-79.9600762,-2.150413],[-79.9599743,-2.1508258],[-79.959985,-2.1509759],[-79.9600172,-2.1512117],[-79.9600547,-2.1514369],[-79.9599635,-2.1516084],[-79.9598402,-2.1517907],[-79.9597597,-2.1519944],[-79.9597704,-2.1521713],[-79.9598724,-2.1523214],[-79.9600494,-2.1524125],[-79.960221,-2.1523964],[-79.9603873,-2.1523589],[-79.9605214,-2.1522838],[-79.960736,-2.1521874],[-79.9608916,-2.152316],[-79.9609774,-2.1524876],[-79.961074,-2.152639]]}}]}